[{"OBJECT_NAME":"EUTELSAT 9B","OBJECT_ID":"2016-005A","EPOCH":"2026-03-02T21:00:12.826944","MEAN_MOTION":1.00273312,"ECCENTRICITY":0.0004505,"INCLINATION":0.0446,"RA_OF_ASC_NODE":72.4248,"ARG_OF_PERICENTER":247.5872,"MEAN_ANOMALY":164.6667,"EPHEMERIS_TYPE":0,"CLASSIFICATION_TYPE":"U","NORAD_CAT_ID":41310,"ELEMENT_SET_NO":999,"REV_AT_EPOCH":3705,"BSTAR":0,"MEAN_MOTION_DOT":4.5e-7,"MEAN_MOTION_DDOT":0},{"OBJECT_NAME":"EUTELSAT 65 WEST A","OBJECT_ID":"2016-014A","EPOCH":"2026-03-03T03:17:38.596128","MEAN_MOTION":1.00272641,"ECCENTRICITY":0.0002265,"INCLINATION":0.0688,"RA_OF_ASC_NODE":39.7159,"ARG_OF_PERICENTER":295.5748,"MEAN_ANOMALY":169.8224,"EPHEMERIS_TYPE":0,"CLASSIFICATION_TYPE":"U","NORAD_CAT_ID":41382,"ELEMENT_SET_NO":999,"REV_AT_EPOCH":3647,"BSTAR":0,"MEAN_MOTION_DOT":-2.92e-6,"MEAN_MOTION_DDOT":0},{"OBJECT_NAME":"EUTELSAT 117 WEST B","OBJECT_ID":"2016-038B","EPOCH":"2026-03-03T03:49:38.807616","MEAN_MOTION":1.0027134,"ECCENTRICITY":8.6e-6,"INCLINATION":0.0363,"RA_OF_ASC_NODE":3.058,"ARG_OF_PERICENTER":185.7502,"MEAN_ANOMALY":272.5261,"EPHEMERIS_TYPE":0,"CLASSIFICATION_TYPE":"U","NORAD_CAT_ID":41589,"ELEMENT_SET_NO":999,"REV_AT_EPOCH":3560,"BSTAR":0,"MEAN_MOTION_DOT":-2.7e-7,"MEAN_MOTION_DDOT":0},{"OBJECT_NAME":"EUTELSAT 172B","OBJECT_ID":"2017-029B","EPOCH":"2026-03-02T20:25:38.678304","MEAN_MOTION":1.0027134,"ECCENTRICITY":1.91e-5,"INCLINATION":0.0188,"RA_OF_ASC_NODE":153.0559,"ARG_OF_PERICENTER":86.8547,"MEAN_ANOMALY":39.0922,"EPHEMERIS_TYPE":0,"CLASSIFICATION_TYPE":"U","NORAD_CAT_ID":42741,"ELEMENT_SET_NO":999,"REV_AT_EPOCH":3267,"BSTAR":0,"MEAN_MOTION_DOT":-2.3e-7,"MEAN_MOTION_DDOT":0},{"OBJECT_NAME":"EUTELSAT 7C","OBJECT_ID":"2019-034B","EPOCH":"2026-03-02T09:26:38.658336","MEAN_MOTION":1.00270229,"ECCENTRICITY":0.00033706,"INCLINATION":0.0725,"RA_OF_ASC_NODE":178.9133,"ARG_OF_PERICENTER":147.8289,"MEAN_ANOMALY":342.0592,"EPHEMERIS_TYPE":0,"CLASSIFICATION_TYPE":"U","NORAD_CAT_ID":44334,"ELEMENT_SET_NO":999,"REV_AT_EPOCH":576,"BSTAR":0,"MEAN_MOTION_DOT":3.0e-7,"MEAN_MOTION_DDOT":0},{"OBJECT_NAME":"EUTELSAT 5 WEST B","OBJECT_ID":"2019-067A","EPOCH":"2026-03-03T03:46:56.664192","MEAN_MOTION":1.00272363,"ECCENTRICITY":0.0003195,"INCLINATION":0.0972,"RA_OF_ASC_NODE":308.8856,"ARG_OF_PERICENTER":40.8397,"MEAN_ANOMALY":222.8955,"EPHEMERIS_TYPE":0,"CLASSIFICATION_TYPE":"U","NORAD_CAT_ID":44624,"ELEMENT_SET_NO":999,"REV_AT_EPOCH":2337,"BSTAR":0,"MEAN_MOTION_DOT":-5.8e-7,"MEAN_MOTION_DDOT":0},{"OBJECT_NAME":"EUTELSAT KONNECT","OBJECT_ID":"2020-005B","EPOCH":"2026-03-03T00:25:03.657216","MEAN_MOTION":1.00275419,"ECCENTRICITY":0.0001378,"INCLINATION":0.0658,"RA_OF_ASC_NODE":98.5704,"ARG_OF_PERICENTER":216.0138,"MEAN_ANOMALY":219.6529,"EPHEMERIS_TYPE":0,"CLASSIFICATION_TYPE":"U","NORAD_CAT_ID":45027,"ELEMENT_SET_NO":999,"REV_AT_EPOCH":2327,"BSTAR":0,"MEAN_MOTION_DOT":3.4e-7,"MEAN_MOTION_DDOT":0},{"OBJECT_NAME":"EUTELSAT QUANTUM","OBJECT_ID":"2021-069B","EPOCH":"2026-03-03T02:31:38.663040","MEAN_MOTION":1.00271903,"ECCENTRICITY":0.0002954,"INCLINATION":0.044,"RA_OF_ASC_NODE":304.7611,"ARG_OF_PERICENTER":31.4902,"MEAN_ANOMALY":270.2169,"EPHEMERIS_TYPE":0,"CLASSIFICATION_TYPE":"U","NORAD_CAT_ID":49056,"ELEMENT_SET_NO":999,"REV_AT_EPOCH":1686,"BSTAR":0,"MEAN_MOTION_DOT":1.1e-6,"MEAN_MOTION_DDOT":0},{"OBJECT_NAME":"EUTELSAT KONNECT VHTS","OBJECT_ID":"2022-110A","EPOCH":"2026-03-03T02:06:28.791936","MEAN_MOTION":1.0027062,"ECCENTRICITY":0.0002859,"INCLINATION":0.0587,"RA_OF_ASC_NODE":102.4713,"ARG_OF_PERICENTER":212.0633,"MEAN_ANOMALY":240.6113,"EPHEMERIS_TYPE":0,"CLASSIFICATION_TYPE":"U","NORAD_CAT_ID":53765,"ELEMENT_SET_NO":999,"REV_AT_EPOCH":577,"BSTAR":0,"MEAN_MOTION_DOT":1.0e-8,"MEAN_MOTION_DDOT":0},{"OBJECT_NAME":"EUTELSAT HOTBIRD 13F","OBJECT_ID":"2022-134A","EPOCH":"2026-03-03T02:09:28.505664","MEAN_MOTION":1.00271753,"ECCENTRICITY":0.0002088,"INCLINATION":0.0599,"RA_OF_ASC_NODE":294.3918,"ARG_OF_PERICENTER":60.971,"MEAN_ANOMALY":210.8442,"EPHEMERIS_TYPE":0,"CLASSIFICATION_TYPE":"U","NORAD_CAT_ID":54048,"ELEMENT_SET_NO":999,"REV_AT_EPOCH":1231,"BSTAR":0,"MEAN_MOTION_DOT":7.1e-7,"MEAN_MOTION_DDOT":0},{"OBJECT_NAME":"EUTELSAT HOTBIRD 13G","OBJECT_ID":"2022-146A","EPOCH":"2026-03-03T02:09:28.505664","MEAN_MOTION":1.00272107,"ECCENTRICITY":0.0001928,"INCLINATION":0.0509,"RA_OF_ASC_NODE":234.2432,"ARG_OF_PERICENTER":312.7136,"MEAN_ANOMALY":19.2582,"EPHEMERIS_TYPE":0,"CLASSIFICATION_TYPE":"U","NORAD_CAT_ID":54225,"ELEMENT_SET_NO":999,"REV_AT_EPOCH":640,"BSTAR":0,"MEAN_MOTION_DOT":7.1e-7,"MEAN_MOTION_DDOT":0},{"OBJECT_NAME":"EUTELSAT 10B","OBJECT_ID":"2022-157A","EPOCH":"2026-03-03T02:08:36.089376","MEAN_MOTION":1.00267713,"ECCENTRICITY":0.000113,"INCLINATION":0.0582,"RA_OF_ASC_NODE":101.6791,"ARG_OF_PERICENTER":22.7559,"MEAN_ANOMALY":78.5209,"EPHEMERIS_TYPE":0,"CLASSIFICATION_TYPE":"U","NORAD_CAT_ID":54259,"ELEMENT_SET_NO":999,"REV_AT_EPOCH":1196,"BSTAR":0,"MEAN_MOTION_DOT":5.1e-7,"MEAN_MOTION_DDOT":0},{"OBJECT_NAME":"EUTELSAT 36D","OBJECT_ID":"2024-059A","EPOCH":"2026-03-03T02:15:57.883680","MEAN_MOTION":1.00270199,"ECCENTRICITY":2.95e-5,"INCLINATION":0.0027,"RA_OF_ASC_NODE":161.5871,"ARG_OF_PERICENTER":152.5787,"MEAN_ANOMALY":276.5357,"EPHEMERIS_TYPE":0,"CLASSIFICATION_TYPE":"U","NORAD_CAT_ID":59346,"ELEMENT_SET_NO":999,"REV_AT_EPOCH":708,"BSTAR":0,"MEAN_MOTION_DOT":1.4e-6,"MEAN_MOTION_DDOT":0}]
