EUTELSAT 9B             
1 41310U 16005A   26061.87514846  .00000045  00000+0  00000+0 0  9996
2 41310   0.0446  72.4248 0004505 247.5872 164.6667  1.00273312 37051
EUTELSAT 65 WEST A      
1 41382U 16014A   26062.13725227 -.00000292  00000+0  00000+0 0  9997
2 41382   0.0688  39.7159 0002265 295.5748 169.8224  1.00272641 36476
EUTELSAT 117 WEST B     
1 41589U 16038B   26062.15947694 -.00000027  00000+0  00000+0 0  9994
2 41589   0.0363   3.0580 0000086 185.7502 272.5261  1.00271340 35606
EUTELSAT 172B           
1 42741U 17029B   26061.85114211 -.00000023  00000+0  00000+0 0  9999
2 42741   0.0188 153.0559 0000191  86.8547  39.0922  1.00271340 32675
EUTELSAT 7C             
1 44334U 19034B   26061.39350299  .00000030  00000+0  00000+0 0  9991
2 44334   0.0725 178.9133 0003370 147.8289 342.0592  1.00270229  5764
EUTELSAT 5 WEST B       
1 44624U 19067A   26062.15760028 -.00000058  00000+0  00000+0 0  9990
2 44624   0.0972 308.8856 0003195  40.8397 222.8955  1.00272363 23379
EUTELSAT KONNECT        
1 45027U 20005B   26062.01740344  .00000034  00000+0  00000+0 0  9999
2 45027   0.0658  98.5704 0001378 216.0138 219.6529  1.00275419 23279
EUTELSAT QUANTUM        
1 49056U 21069B   26062.10530860  .00000110  00000+0  00000+0 0  9991
2 49056   0.0440 304.7611 0002954  31.4902 270.2169  1.00271903 16866
EUTELSAT KONNECT VHTS   
1 53765U 22110A   26062.08783324  .00000001  00000+0  00000+0 0  9992
2 53765   0.0587 102.4713 0002859 212.0633 240.6113  1.00270620  5771
EUTELSAT HOTBIRD 13F    
1 54048U 22134A   26062.08991326  .00000071  00000+0  00000+0 0  9993
2 54048   0.0599 294.3918 0002088  60.9710 210.8442  1.00271753 12317
EUTELSAT HOTBIRD 13G    
1 54225U 22146A   26062.08991326  .00000071  00000+0  00000+0 0  9993
2 54225   0.0509 234.2432 0001928 312.7136  19.2582  1.00272107  6404
EUTELSAT 10B            
1 54259U 22157A   26062.08930659  .00000051  00000+0  00000+0 0  9992
2 54259   0.0582 101.6791 0001130  22.7559  78.5209  1.00267713 11967
EUTELSAT 36D            
1 59346U 24059A   26062.09441995  .00000140  00000+0  00000+0 0  9997
2 59346   0.0027 161.5871 0000295 152.5787 276.5357  1.00270199  7087
